[{"OBJECT_NAME":"YAOGAN-20 01A","OBJECT_ID":"2014-047A","EPOCH":"2026-03-09T23:42:48.180096","MEAN_MOTION":13.4543306,"ECCENTRICITY":0.03815274,"INCLINATION":63.3786,"RA_OF_ASC_NODE":274.8961,"ARG_OF_PERICENTER":14.1455,"MEAN_ANOMALY":346.9906,"EPHEMERIS_TYPE":0,"CLASSIFICATION_TYPE":"U","NORAD_CAT_ID":40109,"ELEMENT_SET_NO":999,"REV_AT_EPOCH":56909,"BSTAR":0.00011386118,"MEAN_MOTION_DOT":1.4e-7,"MEAN_MOTION_DDOT":0},{"OBJECT_NAME":"CZ-6A DEB","OBJECT_ID":"2022-151ADX","EPOCH":"2026-03-04T18:32:42.855072","MEAN_MOTION":14.32307645,"ECCENTRICITY":0.01124701,"INCLINATION":98.6791,"RA_OF_ASC_NODE":86.8533,"ARG_OF_PERICENTER":40.484,"MEAN_ANOMALY":320.4643,"EPHEMERIS_TYPE":0,"CLASSIFICATION_TYPE":"U","NORAD_CAT_ID":56599,"ELEMENT_SET_NO":999,"REV_AT_EPOCH":14938,"BSTAR":0.0013949974,"MEAN_MOTION_DOT":3.995e-5,"MEAN_MOTION_DDOT":0}]
